{
  "type": "FeatureCollection",
  "features": [
    {
      "type": "Feature",
      "properties": {
        "norad_id": 38495,
        "name": "FENGYUN 1C DEB",
        "group": "fengyun-1c-debris",
        "lat": 72.33205113670921,
        "lon": -35.96402294457407,
        "alt_km": 981.9226172812914,
        "timestamp": "2025-12-03T17:47:51.007214+00:00",
        "meta_object_name": "FENGYUN 1C DEB",
        "meta_object_id": "1999-025ESE",
        "meta_epoch": "2025-12-02T06:20:41.771904",
        "meta_mean_motion": 13.69106573,
        "meta_eccentricity": 0.0252581,
        "meta_inclination": 99.1709,
        "meta_ra_of_asc_node": 353.1036,
        "meta_arg_of_pericenter": 165.9119,
        "meta_mean_anomaly": 194.9245,
        "meta_ephemeris_type": 0,
        "meta_classification_type": "U",
        "meta_norad_cat_id": 38495,
        "meta_element_set_no": 999,
        "meta_rev_at_epoch": 60969,
        "meta_bstar": 0.0025866,
        "meta_mean_motion_dot": 2.759e-05,
        "meta_mean_motion_ddot": 0,
        "tle_line1": "1 38495U 99025ESE 25336.26437236  .00002759  00000+0  25866-2 0  9997",
        "tle_line2": "2 38495  99.1709 353.1036 0252581 165.9119 194.9245 13.69106573609697"
      },
      "geometry": {
        "type": "Point",
        "coordinates": [
          -35.96402294457407,
          72.33205113670921
        ]
      }
    },
    {
      "type": "Feature",
      "properties": {
        "norad_id": 38496,
        "name": "FENGYUN 1C DEB",
        "group": "fengyun-1c-debris",
        "lat": -40.22288645370677,
        "lon": -4.801604841786702,
        "alt_km": 849.580114784646,
        "timestamp": "2025-12-03T17:47:51.007225+00:00",
        "meta_object_name": "FENGYUN 1C DEB",
        "meta_object_id": "1999-025ESF",
        "meta_epoch": "2025-12-02T19:50:53.821248",
        "meta_mean_motion": 14.09951283,
        "meta_eccentricity": 0.00773026,
        "meta_inclination": 98.7623,
        "meta_ra_of_asc_node": 346.8127,
        "meta_arg_of_pericenter": 35.254,
        "meta_mean_anomaly": 325.371,
        "meta_ephemeris_type": 0,
        "meta_classification_type": "U",
        "meta_norad_cat_id": 38496,
        "meta_element_set_no": 999,
        "meta_rev_at_epoch": 80881,
        "meta_bstar": 0.0012363442,
        "meta_mean_motion_dot": 2.198e-05,
        "meta_mean_motion_ddot": 0,
        "tle_line1": "1 38496U 99025ESF 25336.82701182  .00002198  00000+0  12363-2 0  9999",
        "tle_line2": "2 38496  98.7623 346.8127 0077302  35.2540 325.3710 14.09951283808814"
      },
      "geometry": {
        "type": "Point",
        "coordinates": [
          -4.801604841786702,
          -40.22288645370677
        ]
      }
    },
    {
      "type": "Feature",
      "properties": {
        "norad_id": 38498,
        "name": "FENGYUN 1C DEB",
        "group": "fengyun-1c-debris",
        "lat": -31.464806321707755,
        "lon": 172.97705088838904,
        "alt_km": 1470.8599399041568,
        "timestamp": "2025-12-03T17:47:51.007235+00:00",
        "meta_object_name": "FENGYUN 1C DEB",
        "meta_object_id": "1999-025ESH",
        "meta_epoch": "2025-12-02T07:26:08.627712",
        "meta_mean_motion": 12.96587855,
        "meta_eccentricity": 0.05567868,
        "meta_inclination": 99.6992,
        "meta_ra_of_asc_node": 357.7083,
        "meta_arg_of_pericenter": 95.9018,
        "meta_mean_anomaly": 270.5803,
        "meta_ephemeris_type": 0,
        "meta_classification_type": "U",
        "meta_norad_cat_id": 38498,
        "meta_element_set_no": 999,
        "meta_rev_at_epoch": 53608,
        "meta_bstar": 0.0021056117,
        "meta_mean_motion_dot": 1.199e-05,
        "meta_mean_motion_ddot": 0,
        "tle_line1": "1 38498U 99025ESH 25336.30982208  .00001199  00000+0  21056-2 0  9993",
        "tle_line2": "2 38498  99.6992 357.7083 0556786  95.9018 270.5803 12.96587855536083"
      },
      "geometry": {
        "type": "Point",
        "coordinates": [
          172.97705088838904,
          -31.464806321707755
        ]
      }
    },
    {
      "type": "Feature",
      "properties": {
        "norad_id": 38510,
        "name": "FENGYUN 1C DEB",
        "group": "fengyun-1c-debris",
        "lat": 1.2980968061132525,
        "lon": 167.36286979007951,
        "alt_km": 780.021609813225,
        "timestamp": "2025-12-03T17:47:51.007245+00:00",
        "meta_object_name": "FENGYUN 1C DEB",
        "meta_object_id": "1999-025ESV",
        "meta_epoch": "2025-11-26T06:32:42.236448",
        "meta_mean_motion": 14.13269737,
        "meta_eccentricity": 0.00981735,
        "meta_inclination": 98.6025,
        "meta_ra_of_asc_node": 339.985,
        "meta_arg_of_pericenter": 196.9618,
        "meta_mean_anomaly": 162.8266,
        "meta_ephemeris_type": 0,
        "meta_classification_type": "U",
        "meta_norad_cat_id": 38510,
        "meta_element_set_no": 999,
        "meta_rev_at_epoch": 88437,
        "meta_bstar": 0.0006714866,
        "meta_mean_motion_dot": 1.276e-05,
        "meta_mean_motion_ddot": 0,
        "tle_line1": "1 38510U 99025ESV 25330.27271107  .00001276  00000+0  67149-3 0  9997",
        "tle_line2": "2 38510  98.6025 339.9850 0098173 196.9618 162.8266 14.13269737884378"
      },
      "geometry": {
        "type": "Point",
        "coordinates": [
          167.36286979007951,
          1.2980968061132525
        ]
      }
    },
    {
      "type": "Feature",
      "properties": {
        "norad_id": 38512,
        "name": "FENGYUN 1C DEB",
        "group": "fengyun-1c-debris",
        "lat": 49.66236969459393,
        "lon": -149.3432844897494,
        "alt_km": 946.013959556627,
        "timestamp": "2025-12-03T17:47:51.007257+00:00",
        "meta_object_name": "FENGYUN 1C DEB",
        "meta_object_id": "1999-025ESX",
        "meta_epoch": "2025-11-24T15:04:33.900960",
        "meta_mean_motion": 13.73922037,
        "meta_eccentricity": 0.02258852,
        "meta_inclination": 98.3776,
        "meta_ra_of_asc_node": 212.6517,
        "meta_arg_of_pericenter": 154.1881,
        "meta_mean_anomaly": 207.075,
        "meta_ephemeris_type": 0,
        "meta_classification_type": "U",
        "meta_norad_cat_id": 38512,
        "meta_element_set_no": 999,
        "meta_rev_at_epoch": 59321,
        "meta_bstar": 0.0011065478,
        "meta_mean_motion_dot": 1.212e-05,
        "meta_mean_motion_ddot": 0,
        "tle_line1": "1 38512U 99025ESX 25328.62817015  .00001212  00000+0  11065-2 0  9994",
        "tle_line2": "2 38512  98.3776 212.6517 0225885 154.1881 207.0750 13.73922037593211"
      },
      "geometry": {
        "type": "Point",
        "coordinates": [
          -149.3432844897494,
          49.66236969459393
        ]
      }
    },
    {
      "type": "Feature",
      "properties": {
        "norad_id": 38513,
        "name": "FENGYUN 1C DEB",
        "group": "fengyun-1c-debris",
        "lat": -81.68487357347551,
        "lon": -53.9520040270498,
        "alt_km": 473.5133028680448,
        "timestamp": "2025-12-03T17:47:51.007268+00:00",
        "meta_object_name": "FENGYUN 1C DEB",
        "meta_object_id": "1999-025ESY",
        "meta_epoch": "2025-11-05T11:10:23.483712",
        "meta_mean_motion": 14.74191137,
        "meta_eccentricity": 0.02562234,
        "meta_inclination": 97.6286,
        "meta_ra_of_asc_node": 212.8757,
        "meta_arg_of_pericenter": 7.2303,
        "meta_mean_anomaly": 353.249,
        "meta_ephemeris_type": 0,
        "meta_classification_type": "U",
        "meta_norad_cat_id": 38513,
        "meta_element_set_no": 999,
        "meta_rev_at_epoch": 63108,
        "meta_bstar": 0.0018759347,
        "meta_mean_motion_dot": 0.0002109,
        "meta_mean_motion_ddot": 0,
        "tle_line1": "1 38513U 99025ESY 25309.46554958  .00021090  00000+0  18759-2 0  9993",
        "tle_line2": "2 38513  97.6286 212.8757 0256223   7.2303 353.2490 14.74191137631089"
      },
      "geometry": {
        "type": "Point",
        "coordinates": [
          -53.9520040270498,
          -81.68487357347551
        ]
      }
    },
    {
      "type": "Feature",
      "properties": {
        "norad_id": 38514,
        "name": "FENGYUN 1C DEB",
        "group": "fengyun-1c-debris",
        "lat": -50.69226074490555,
        "lon": 178.21329372899467,
        "alt_km": 1041.405639149365,
        "timestamp": "2025-12-03T17:47:51.007278+00:00",
        "meta_object_name": "FENGYUN 1C DEB",
        "meta_object_id": "1999-025ESZ",
        "meta_epoch": "2025-12-02T08:28:32.073600",
        "meta_mean_motion": 14.1520314,
        "meta_eccentricity": 0.02727201,
        "meta_inclination": 98.0552,
        "meta_ra_of_asc_node": 6.9176,
        "meta_arg_of_pericenter": 44.3542,
        "meta_mean_anomaly": 317.9133,
        "meta_ephemeris_type": 0,
        "meta_classification_type": "U",
        "meta_norad_cat_id": 38514,
        "meta_element_set_no": 999,
        "meta_rev_at_epoch": 87849,
        "meta_bstar": 0.0058072716,
        "meta_mean_motion_dot": 0.00016169,
        "meta_mean_motion_ddot": 0,
        "tle_line1": "1 38514U 99025ESZ 25336.35314900  .00016169  00000+0  58073-2 0  9997",
        "tle_line2": "2 38514  98.0552   6.9176 0272720  44.3542 317.9133 14.15203140878497"
      },
      "geometry": {
        "type": "Point",
        "coordinates": [
          178.21329372899467,
          -50.69226074490555
        ]
      }
    }
  ]
}